{"type": "FeatureCollection", "features": [ {"type": "Feature", "properties": {"norad_id": 31955, "name": "FENGYUN 1C DEB", "group": "fengyun-1c-debris", "lat": -64.86113074433037, "lon": 27.66127221389529, "alt_km": 681.0199757856699, "timestamp": "2025-12-16T17:51:11.216716+00:00", "meta": {"OBJECT_NAME": "FENGYUN 1C DEB", "OBJECT_ID": "1999-025CNG", "EPOCH": "2025-12-15T10:23:42.109728", "MEAN_MOTION": 14.63944963, "ECCENTRICITY": 0.00433232, "INCLINATION": 99.2813, "RA_OF_ASC_NODE": 226.5808, "ARG_OF_PERICENTER": 172.6354, "MEAN_ANOMALY": 9.3752, "EPHEMERIS_TYPE": 0, "CLASSIFICATION_TYPE": "U", "NORAD_CAT_ID": 31955, "ELEMENT_SET_NO": 999, "REV_AT_EPOCH": 96596, "BSTAR": 0.001074436, "MEAN_MOTION_DOT": 5.644e-05, "MEAN_MOTION_DDOT": 0}, "tle": {"line1": "1 31955U 99025CNG 25349.43312627  .00005644  00000+0  10744-2 0  9995", "line2": "2 31955  99.2813 226.5808 0043323 172.6354   9.3752 14.63944963965961"}}, "geometry": {"type": "Point", "coordinates": [27.66127221389529, -64.86113074433037]}}, {"type": "Feature", "properties": {"norad_id": 31959, "name": "FENGYUN 1C DEB", "group": "fengyun-1c-debris", "lat": 46.36569525335007, "lon": -147.2662289500615, "alt_km": 733.8807628567656, "timestamp": "2025-12-16T17:51:11.216727+00:00", "meta": {"OBJECT_NAME": "FENGYUN 1C DEB", "OBJECT_ID": "1999-025CNL", "EPOCH": "2025-12-15T21:43:06.555936", "MEAN_MOTION": 14.46811272, "ECCENTRICITY": 0.00269599, "INCLINATION": 98.5102, "RA_OF_ASC_NODE": 220.9264, "ARG_OF_PERICENTER": 145.5105, "MEAN_ANOMALY": 214.7843, "EPHEMERIS_TYPE": 0, "CLASSIFICATION_TYPE": "U", "NORAD_CAT_ID": 31959, "ELEMENT_SET_NO": 999, "REV_AT_EPOCH": 64399, "BSTAR": 0.001670698, "MEAN_MOTION_DOT": 6.039e-05, "MEAN_MOTION_DDOT": 0}, "tle": {"line1": "1 31959U 99025CNL 25349.90493699  .00006039  00000+0  16707-2 0  9994", "line2": "2 31959  98.5102 220.9264 0026959 145.5105 214.7843 14.46811272643997"}}, "geometry": {"type": "Point", "coordinates": [-147.2662289500615, 46.36569525335007]}}, {"type": "Feature", "properties": {"norad_id": 31964, "name": "FENGYUN 1C DEB", "group": "fengyun-1c-debris", "lat": -2.7696292320997102, "lon": 114.98670192322956, "alt_km": 682.1288538004937, "timestamp": "2025-12-16T17:51:11.216742+00:00", "meta": {"OBJECT_NAME": "FENGYUN 1C DEB", "OBJECT_ID": "1999-025CNR", "EPOCH": "2025-12-14T14:49:38.771040", "MEAN_MOTION": 14.58552528, "ECCENTRICITY": 0.00285311, "INCLINATION": 98.6993, "RA_OF_ASC_NODE": 112.3379, "ARG_OF_PERICENTER": 24.3598, "MEAN_ANOMALY": 335.8941, "EPHEMERIS_TYPE": 0, "CLASSIFICATION_TYPE": "U", "NORAD_CAT_ID": 31964, "ELEMENT_SET_NO": 999, "REV_AT_EPOCH": 67537, "BSTAR": 0.0020372059, "MEAN_MOTION_DOT": 9.485e-05, "MEAN_MOTION_DDOT": 0}, "tle": {"line1": "1 31964U 99025CNR 25348.61780985  .00009485  00000+0  20372-2 0  9995", "line2": "2 31964  98.6993 112.3379 0028531  24.3598 335.8941 14.58552528675371"}}, "geometry": {"type": "Point", "coordinates": [114.98670192322956, -2.7696292320997102]}}, {"type": "Feature", "properties": {"norad_id": 31966, "name": "FENGYUN 1C DEB", "group": "fengyun-1c-debris", "lat": 72.26640504168377, "lon": -6.489543458649063, "alt_km": 717.5302085171925, "timestamp": "2025-12-16T17:51:11.216754+00:00", "meta": {"OBJECT_NAME": "FENGYUN 1C DEB", "OBJECT_ID": "1999-025CNT", "EPOCH": "2025-12-14T16:16:47.947008", "MEAN_MOTION": 14.67572653, "ECCENTRICITY": 0.00860011, "INCLINATION": 99.0165, "RA_OF_ASC_NODE": 141.4675, "ARG_OF_PERICENTER": 268.825, "MEAN_ANOMALY": 90.3098, "EPHEMERIS_TYPE": 0, "CLASSIFICATION_TYPE": "U", "NORAD_CAT_ID": 31966, "ELEMENT_SET_NO": 999, "REV_AT_EPOCH": 65771, "BSTAR": 0.0010171783, "MEAN_MOTION_DOT": 6.044e-05, "MEAN_MOTION_DDOT": 0}, "tle": {"line1": "1 31966U 99025CNT 25348.67833272  .00006044  00000+0  10172-2 0  9996", "line2": "2 31966  99.0165 141.4675 0086001 268.8250  90.3098 14.67572653657712"}}, "geometry": {"type": "Point", "coordinates": [-6.489543458649063, 72.26640504168377]}}, {"type": "Feature", "properties": {"norad_id": 31972, "name": "FENGYUN 1C DEB", "group": "fengyun-1c-debris", "lat": 1.4964421361683484, "lon": 32.22663381470008, "alt_km": 817.925925462001, "timestamp": "2025-12-16T17:51:11.216764+00:00", "meta": {"OBJECT_NAME": "FENGYUN 1C DEB", "OBJECT_ID": "1999-025CNZ", "EPOCH": "2025-12-15T09:30:08.600832", "MEAN_MOTION": 14.0751463, "ECCENTRICITY": 0.00768167, "INCLINATION": 99.2116, "RA_OF_ASC_NODE": 31.0957, "ARG_OF_PERICENTER": 24.5055, "MEAN_ANOMALY": 351.0399, "EPHEMERIS_TYPE": 0, "CLASSIFICATION_TYPE": "U", "NORAD_CAT_ID": 31972, "ELEMENT_SET_NO": 999, "REV_AT_EPOCH": 94998, "BSTAR": 0.00022215636, "MEAN_MOTION_DOT": 3.38e-06, "MEAN_MOTION_DDOT": 0}, "tle": {"line1": "1 31972U 99025CNZ 25349.39593288  .00000338  00000+0  22216-3 0  9996", "line2": "2 31972  99.2116  31.0957 0076816  24.5055 351.0399 14.07514630949986"}}, "geometry": {"type": "Point", "coordinates": [32.22663381470008, 1.4964421361683484]}}, {"type": "Feature", "properties": {"norad_id": 31974, "name": "FENGYUN 1C DEB", "group": "fengyun-1c-debris", "lat": 67.75520943367661, "lon": -19.405790851508915, "alt_km": 824.7278585489139, "timestamp": "2025-12-16T17:51:11.216775+00:00", "meta": {"OBJECT_NAME": "FENGYUN 1C DEB", "OBJECT_ID": "1999-025CPB", "EPOCH": "2025-12-15T11:17:33.919008", "MEAN_MOTION": 14.29558443, "ECCENTRICITY": 0.00714173, "INCLINATION": 98.3802, "RA_OF_ASC_NODE": 0.4944, "ARG_OF_PERICENTER": 294.6649, "MEAN_ANOMALY": 64.7108, "EPHEMERIS_TYPE": 0, "CLASSIFICATION_TYPE": "U", "NORAD_CAT_ID": 31974, "ELEMENT_SET_NO": 999, "REV_AT_EPOCH": 69461, "BSTAR": 0.0017573071, "MEAN_MOTION_DOT": 4.58e-05, "MEAN_MOTION_DDOT": 0}, "tle": {"line1": "1 31974U 99025CPB 25349.47053147  .00004580  00000+0  17573-2 0  9994", "line2": "2 31974  98.3802   0.4944 0071417 294.6649  64.7108 14.29558443694614"}}, "geometry": {"type": "Point", "coordinates": [-19.405790851508915, 67.75520943367661]}}, {"type": "Feature", "properties": {"norad_id": 31978, "name": "FENGYUN 1C DEB", "group": "fengyun-1c-debris", "lat": -49.51089253384288, "lon": -44.71523511255392, "alt_km": 1222.582608706758, "timestamp": "2025-12-16T17:51:11.216785+00:00", "meta": {"OBJECT_NAME": "FENGYUN 1C DEB", "OBJECT_ID": "1999-025CPF", "EPOCH": "2025-12-08T09:40:24.995712", "MEAN_MOTION": 13.63098344, "ECCENTRICITY": 0.0263392, "INCLINATION": 98.3802, "RA_OF_ASC_NODE": 138.0358, "ARG_OF_PERICENTER": 61.5347, "MEAN_ANOMALY": 301.2062, "EPHEMERIS_TYPE": 0, "CLASSIFICATION_TYPE": "U", "NORAD_CAT_ID": 31978, "ELEMENT_SET_NO": 999, "REV_AT_EPOCH": 91531, "BSTAR": 0.0016862469, "MEAN_MOTION_DOT": 1.637e-05, "MEAN_MOTION_DDOT": 0}, "tle": {"line1": "1 31978U 99025CPF 25342.40306708  .00001637  00000+0  16862-2 0  9998", "line2": "2 31978  98.3802 138.0358 0263392  61.5347 301.2062 13.63098344915313"}}, "geometry": {"type": "Point", "coordinates": [-44.71523511255392, -49.51089253384288]}}, {"type": "Feature", "properties": {"norad_id": 31979, "name": "FENGYUN 1C DEB", "group": "fengyun-1c-debris", "lat": -52.94560958825112, "lon": -109.3985013065095, "alt_km": 849.1813451512617, "timestamp": "2025-12-16T17:51:11.216795+00:00", "meta": {"OBJECT_NAME": "FENGYUN 1C DEB", "OBJECT_ID": "1999-025CPG", "EPOCH": "2025-12-13T23:48:23.569344", "MEAN_MOTION": 13.69300547, "ECCENTRICITY": 0.02666155, "INCLINATION": 99.3765, "RA_OF_ASC_NODE": 80.5613, "ARG_OF_PERICENTER": 277.6915, "MEAN_ANOMALY": 79.4034, "EPHEMERIS_TYPE": 0, "CLASSIFICATION_TYPE": "U", "NORAD_CAT_ID": 31979, "ELEMENT_SET_NO": 999, "REV_AT_EPOCH": 57929, "BSTAR": 0.0038296702, "MEAN_MOTION_DOT": 4.222e-05, "MEAN_MOTION_DDOT": 0}, "tle": {"line1": "1 31979U 99025CPG 25347.99193946  .00004222  00000+0  38297-2 0  9995", "line2": "2 31979  99.3765  80.5613 0266615 277.6915  79.4034 13.69300547579293"}}, "geometry": {"type": "Point", "coordinates": [-109.3985013065095, -52.94560958825112]}}, {"type": "Feature", "properties": {"norad_id": 31980, "name": "FENGYUN 1C DEB", "group": "fengyun-1c-debris", "lat": 76.24975379243043, "lon": -71.85839957502765, "alt_km": 809.6787997299416, "timestamp": "2025-12-16T17:51:11.216806+00:00", "meta": {"OBJECT_NAME": "FENGYUN 1C DEB", "OBJECT_ID": "1999-025CPH", "EPOCH": "2025-12-13T11:51:29.901312", "MEAN_MOTION": 13.32151441, "ECCENTRICITY": 0.04280699, "INCLINATION": 97.6129, "RA_OF_ASC_NODE": 72.5932, "ARG_OF_PERICENTER": 111.039, "MEAN_ANOMALY": 253.7071, "EPHEMERIS_TYPE": 0, "CLASSIFICATION_TYPE": "U", "NORAD_CAT_ID": 31980, "ELEMENT_SET_NO": 999, "REV_AT_EPOCH": 89680, "BSTAR": 0.00074102624, "MEAN_MOTION_DOT": 5.73e-06, "MEAN_MOTION_DDOT": 0}, "tle": {"line1": "1 31980U 99025CPH 25347.49409608  .00000573  00000+0  74103-3 0  9999", "line2": "2 31980  97.6129  72.5932 0428069 111.0390 253.7071 13.32151441896800"}}, "geometry": {"type": "Point", "coordinates": [-71.85839957502765, 76.24975379243043]}}, {"type": "Feature", "properties": {"norad_id": 31984, "name": "FENGYUN 1C DEB", "group": "fengyun-1c-debris", "lat": -37.44763024900852, "lon": 1.590255141386444, "alt_km": 834.2454844346248, "timestamp": "2025-12-16T17:51:11.216816+00:00", "meta": {"OBJECT_NAME": "FENGYUN 1C DEB", "OBJECT_ID": "1999-025CPM", "EPOCH": "2025-12-14T20:28:02.996544", "MEAN_MOTION": 14.22962941, "ECCENTRICITY": 0.00626572, "INCLINATION": 98.558, "RA_OF_ASC_NODE": 353.13, "ARG_OF_PERICENTER": 221.1233, "MEAN_ANOMALY": 138.5215, "EPHEMERIS_TYPE": 0, "CLASSIFICATION_TYPE": "U", "NORAD_CAT_ID": 31984, "ELEMENT_SET_NO": 999, "REV_AT_EPOCH": 94403, "BSTAR": 0.00038353885, "MEAN_MOTION_DOT": 8.38e-06, "MEAN_MOTION_DDOT": 0}, "tle": {"line1": "1 31984U 99025CPM 25348.85281246  .00000838  00000+0  38354-3 0  9992", "line2": "2 31984  98.5580 353.1300 0062657 221.1233 138.5215 14.22962941944032"}}, "geometry": {"type": "Point", "coordinates": [1.590255141386444, -37.44763024900852]}}]}